{"type": "FeatureCollection", "features": [ {"type": "Feature", "properties": {"norad_id": 42969, "name": "SENTINEL-5P", "group": "resource", "lat": 63.942446887032425, "lon": 114.29074365173553, "alt_km": 820.1406695277938, "timestamp": "2025-12-03T04:52:29.298953+00:00", "meta": {"OBJECT_NAME": "SENTINEL-5P", "OBJECT_ID": "2017-064A", "EPOCH": "2025-12-02T19:52:43.055040", "MEAN_MOTION": 14.19513361, "ECCENTRICITY": 9.39e-05, "INCLINATION": 98.7769, "RA_OF_ASC_NODE": 275.501, "ARG_OF_PERICENTER": 85.694, "MEAN_ANOMALY": 274.4343, "EPHEMERIS_TYPE": 0, "CLASSIFICATION_TYPE": "U", "NORAD_CAT_ID": 42969, "ELEMENT_SET_NO": 999, "REV_AT_EPOCH": 42170, "BSTAR": 7.5126e-05, "MEAN_MOTION_DOT": 1.14e-06, "MEAN_MOTION_DDOT": 0}, "tle": {"line1": "1 42969U 17064A   25336.82827610  .00000114  00000+0  75126-4 0  9991", "line2": "2 42969  98.7769 275.5010 0000939  85.6940 274.4343 14.19513361421706"}}, "geometry": {"type": "Point", "coordinates": [114.29074365173553, 63.942446887032425]}}, {"type": "Feature", "properties": {"norad_id": 42987, "name": "SKYSAT-C11", "group": "resource", "lat": 6.075358406798012, "lon": -64.74255735063049, "alt_km": 427.9495218981174, "timestamp": "2025-12-03T04:52:29.298964+00:00", "meta": {"OBJECT_NAME": "SKYSAT-C11", "OBJECT_ID": "2017-068A", "EPOCH": "2025-12-02T20:21:47.418336", "MEAN_MOTION": 15.46813099, "ECCENTRICITY": 9.33e-05, "INCLINATION": 97.4134, "RA_OF_ASC_NODE": 114.1004, "ARG_OF_PERICENTER": 118.2693, "MEAN_ANOMALY": 241.8651, "EPHEMERIS_TYPE": 0, "CLASSIFICATION_TYPE": "U", "NORAD_CAT_ID": 42987, "ELEMENT_SET_NO": 999, "REV_AT_EPOCH": 45278, "BSTAR": 0.00054531, "MEAN_MOTION_DOT": 0.00027318, "MEAN_MOTION_DDOT": 0}, "tle": {"line1": "1 42987U 17068A   25336.84846549  .00027318  00000+0  54531-3 0  9990", "line2": "2 42987  97.4134 114.1004 0000933 118.2693 241.8651 15.46813099452785"}}, "geometry": {"type": "Point", "coordinates": [-64.74255735063049, 6.075358406798012]}}, {"type": "Feature", "properties": {"norad_id": 42988, "name": "SKYSAT-C10", "group": "resource", "lat": 55.17771666800673, "lon": 97.22367704408691, "alt_km": 463.093065946814, "timestamp": "2025-12-03T04:52:29.298974+00:00", "meta": {"OBJECT_NAME": "SKYSAT-C10", "OBJECT_ID": "2017-068B", "EPOCH": "2025-12-02T19:13:33.649824", "MEAN_MOTION": 15.31968347, "ECCENTRICITY": 0.0005481, "INCLINATION": 97.4252, "RA_OF_ASC_NODE": 107.627, "ARG_OF_PERICENTER": 121.9495, "MEAN_ANOMALY": 238.228, "EPHEMERIS_TYPE": 0, "CLASSIFICATION_TYPE": "U", "NORAD_CAT_ID": 42988, "ELEMENT_SET_NO": 999, "REV_AT_EPOCH": 45227, "BSTAR": 0.00047679, "MEAN_MOTION_DOT": 0.00014656, "MEAN_MOTION_DDOT": 0}, "tle": {"line1": "1 42988U 17068B   25336.80108391  .00014656  00000+0  47679-3 0  9999", "line2": "2 42988  97.4252 107.6270 0005481 121.9495 238.2280 15.31968347452276"}}, "geometry": {"type": "Point", "coordinates": [97.22367704408691, 55.17771666800673]}}, {"type": "Feature", "properties": {"norad_id": 42989, "name": "SKYSAT-C9", "group": "resource", "lat": 50.68259644610842, "lon": -63.46166576403519, "alt_km": 447.19668662830736, "timestamp": "2025-12-03T04:52:29.298984+00:00", "meta": {"OBJECT_NAME": "SKYSAT-C9", "OBJECT_ID": "2017-068C", "EPOCH": "2025-12-02T20:29:51.712800", "MEAN_MOTION": 15.35646888, "ECCENTRICITY": 0.0010639, "INCLINATION": 97.4179, "RA_OF_ASC_NODE": 107.0333, "ARG_OF_PERICENTER": 119.9462, "MEAN_ANOMALY": 240.2839, "EPHEMERIS_TYPE": 0, "CLASSIFICATION_TYPE": "U", "NORAD_CAT_ID": 42989, "ELEMENT_SET_NO": 999, "REV_AT_EPOCH": 45256, "BSTAR": 0.0004976, "MEAN_MOTION_DOT": 0.00017214, "MEAN_MOTION_DDOT": 0}, "tle": {"line1": "1 42989U 17068C   25336.85407075  .00017214  00000+0  49760-3 0  9992", "line2": "2 42989  97.4179 107.0333 0010639 119.9462 240.2839 15.35646888452563"}}, "geometry": {"type": "Point", "coordinates": [-63.46166576403519, 50.68259644610842]}}, {"type": "Feature", "properties": {"norad_id": 42990, "name": "SKYSAT-C8", "group": "resource", "lat": -25.72554395093111, "lon": -76.43922437794707, "alt_km": 475.32562853052696, "timestamp": "2025-12-03T04:52:29.298994+00:00", "meta": {"OBJECT_NAME": "SKYSAT-C8", "OBJECT_ID": "2017-068D", "EPOCH": "2025-12-02T18:34:38.624160", "MEAN_MOTION": 15.32573137, "ECCENTRICITY": 0.0002164, "INCLINATION": 97.4273, "RA_OF_ASC_NODE": 106.7339, "ARG_OF_PERICENTER": 21.9121, "MEAN_ANOMALY": 338.2213, "EPHEMERIS_TYPE": 0, "CLASSIFICATION_TYPE": "U", "NORAD_CAT_ID": 42990, "ELEMENT_SET_NO": 999, "REV_AT_EPOCH": 45218, "BSTAR": 0.00048674, "MEAN_MOTION_DOT": 0.00015245, "MEAN_MOTION_DDOT": 0}, "tle": {"line1": "1 42990U 17068D   25336.77405815  .00015245  00000+0  48674-3 0  9990", "line2": "2 42990  97.4273 106.7339 0002164  21.9121 338.2213 15.32573137452185"}}, "geometry": {"type": "Point", "coordinates": [-76.43922437794707, -25.72554395093111]}}, {"type": "Feature", "properties": {"norad_id": 42991, "name": "SKYSAT-C7", "group": "resource", "lat": 78.77362267212673, "lon": 67.11801212419972, "alt_km": 457.18146647826416, "timestamp": "2025-12-03T04:52:29.299004+00:00", "meta": {"OBJECT_NAME": "SKYSAT-C7", "OBJECT_ID": "2017-068E", "EPOCH": "2025-12-02T19:06:53.457984", "MEAN_MOTION": 15.31982094, "ECCENTRICITY": 0.0007856, "INCLINATION": 97.428, "RA_OF_ASC_NODE": 107.8056, "ARG_OF_PERICENTER": 87.9943, "MEAN_ANOMALY": 272.2199, "EPHEMERIS_TYPE": 0, "CLASSIFICATION_TYPE": "U", "NORAD_CAT_ID": 42991, "ELEMENT_SET_NO": 999, "REV_AT_EPOCH": 45225, "BSTAR": 0.00047328, "MEAN_MOTION_DOT": 0.00014561, "MEAN_MOTION_DDOT": 0}, "tle": {"line1": "1 42991U 17068E   25336.79645206  .00014561  00000+0  47328-3 0  9998", "line2": "2 42991  97.4280 107.8056 0007856  87.9943 272.2199 15.31982094452252"}}, "geometry": {"type": "Point", "coordinates": [67.11801212419972, 78.77362267212673]}}, {"type": "Feature", "properties": {"norad_id": 42992, "name": "SKYSAT-C6", "group": "resource", "lat": -46.57439633837808, "lon": -79.26717815853688, "alt_km": 480.78627404078816, "timestamp": "2025-12-03T04:52:29.299015+00:00", "meta": {"OBJECT_NAME": "SKYSAT-C6", "OBJECT_ID": "2017-068F", "EPOCH": "2025-12-02T20:02:40.619904", "MEAN_MOTION": 15.3116287, "ECCENTRICITY": 0.0005141, "INCLINATION": 97.4315, "RA_OF_ASC_NODE": 108.2909, "ARG_OF_PERICENTER": 110.7435, "MEAN_ANOMALY": 249.4357, "EPHEMERIS_TYPE": 0, "CLASSIFICATION_TYPE": "U", "NORAD_CAT_ID": 42992, "ELEMENT_SET_NO": 999, "REV_AT_EPOCH": 45224, "BSTAR": 0.00046924, "MEAN_MOTION_DOT": 0.00014064, "MEAN_MOTION_DDOT": 0}, "tle": {"line1": "1 42992U 17068F   25336.83519236  .00014064  00000+0  46924-3 0  9996", "line2": "2 42992  97.4315 108.2909 0005141 110.7435 249.4357 15.31162870452243"}}, "geometry": {"type": "Point", "coordinates": [-79.26717815853688, -46.57439633837808]}}, {"type": "Feature", "properties": {"norad_id": 43111, "name": "CARTOSAT-2F", "group": "resource", "lat": 28.019843481592105, "lon": 31.010750683244627, "alt_km": 507.43818702603585, "timestamp": "2025-12-03T04:52:29.299025+00:00", "meta": {"OBJECT_NAME": "CARTOSAT-2F", "OBJECT_ID": "2018-004A", "EPOCH": "2025-12-03T01:35:21.916032", "MEAN_MOTION": 15.19340627, "ECCENTRICITY": 0.0001105, "INCLINATION": 97.4331, "RA_OF_ASC_NODE": 34.8599, "ARG_OF_PERICENTER": 194.5597, "MEAN_ANOMALY": 165.5606, "EPHEMERIS_TYPE": 0, "CLASSIFICATION_TYPE": "U", "NORAD_CAT_ID": 43111, "ELEMENT_SET_NO": 999, "REV_AT_EPOCH": 43755, "BSTAR": 6.7463e-05, "MEAN_MOTION_DOT": 1.358e-05, "MEAN_MOTION_DDOT": 0}, "tle": {"line1": "1 43111U 18004A   25337.06622588  .00001358  00000+0  67463-4 0  9996", "line2": "2 43111  97.4331  34.8599 0001105 194.5597 165.5606 15.19340627437555"}}, "geometry": {"type": "Point", "coordinates": [31.010750683244627, 28.019843481592105]}}, {"type": "Feature", "properties": {"norad_id": 43259, "name": "GAOFEN-1 02", "group": "resource", "lat": -0.6078051262423332, "lon": -145.09826856394002, "alt_km": 643.4889749528593, "timestamp": "2025-12-03T04:52:29.299035+00:00", "meta": {"OBJECT_NAME": "GAOFEN-1 02", "OBJECT_ID": "2018-031A", "EPOCH": "2025-12-02T21:33:13.364640", "MEAN_MOTION": 14.76446302, "ECCENTRICITY": 0.0001289, "INCLINATION": 98.0821, "RA_OF_ASC_NODE": 34.6829, "ARG_OF_PERICENTER": 261.14, "MEAN_ANOMALY": 98.9663, "EPHEMERIS_TYPE": 0, "CLASSIFICATION_TYPE": "U", "NORAD_CAT_ID": 43259, "ELEMENT_SET_NO": 999, "REV_AT_EPOCH": 41373, "BSTAR": 0.00020017, "MEAN_MOTION_DOT": 1.341e-05, "MEAN_MOTION_DDOT": 0}, "tle": {"line1": "1 43259U 18031A   25336.89807135  .00001341  00000+0  20017-3 0  9997", "line2": "2 43259  98.0821  34.6829 0001289 261.1400  98.9663 14.76446302413735"}}, "geometry": {"type": "Point", "coordinates": [-145.09826856394002, -0.6078051262423332]}}, {"type": "Feature", "properties": {"norad_id": 43260, "name": "GAOFEN-1 03", "group": "resource", "lat": -61.98536742042292, "lon": 50.355417595789454, "alt_km": 647.0062253401256, "timestamp": "2025-12-03T04:52:29.299045+00:00", "meta": {"OBJECT_NAME": "GAOFEN-1 03", "OBJECT_ID": "2018-031B", "EPOCH": "2025-12-02T21:01:38.007840", "MEAN_MOTION": 14.76402551, "ECCENTRICITY": 0.000267, "INCLINATION": 98.0813, "RA_OF_ASC_NODE": 34.5392, "ARG_OF_PERICENTER": 0.3515, "MEAN_ANOMALY": 359.7696, "EPHEMERIS_TYPE": 0, "CLASSIFICATION_TYPE": "U", "NORAD_CAT_ID": 43260, "ELEMENT_SET_NO": 999, "REV_AT_EPOCH": 41372, "BSTAR": 0.00019534, "MEAN_MOTION_DOT": 1.306e-05, "MEAN_MOTION_DDOT": 0}, "tle": {"line1": "1 43260U 18031B   25336.87613435  .00001306  00000+0  19534-3 0  9998", "line2": "2 43260  98.0813  34.5392 0002670   0.3515 359.7696 14.76402551413728"}}, "geometry": {"type": "Point", "coordinates": [50.355417595789454, -61.98536742042292]}}]}